[
    {
        "CCSDS_OMM_VERS": "3.0",
        "COMMENT": "GENERATED VIA SPACE-TRACK.ORG API",
        "CREATION_DATE": "2025-04-09T19:37:26",
        "ORIGINATOR": "18 SPCS",
        "OBJECT_NAME": "GALILEO 8 (264)",
        "OBJECT_ID": "2015-017B",
        "CENTER_NAME": "EARTH",
        "REF_FRAME": "TEME",
        "TIME_SYSTEM": "UTC",
        "MEAN_ELEMENT_THEORY": "SGP4",
        "EPOCH": "2025-04-08T19:25:07.253472",
        "MEAN_MOTION": "1.70475593",
        "ECCENTRICITY": "0.00029640",
        "INCLINATION": "56.9050",
        "RA_OF_ASC_NODE": "353.4452",
        "ARG_OF_PERICENTER": "284.9354",
        "MEAN_ANOMALY": "75.0654",
        "EPHEMERIS_TYPE": "0",
        "CLASSIFICATION_TYPE": "U",
        "NORAD_CAT_ID": "40545",
        "ELEMENT_SET_NO": "999",
        "REV_AT_EPOCH": "2484",
        "BSTAR": "0.00000000000000",
        "MEAN_MOTION_DOT": "-0.00000106",
        "MEAN_MOTION_DDOT": "0.0000000000000",
        "SEMIMAJOR_AXIS": "29600.136",
        "PERIOD": "844.696",
        "APOAPSIS": "23230.774",
        "PERIAPSIS": "23213.227",
        "OBJECT_TYPE": "PAYLOAD",
        "RCS_SIZE": "LARGE",
        "COUNTRY_CODE": "ESA",
        "LAUNCH_DATE": "2015-03-27",
        "SITE": "FRGUI",
        "DECAY_DATE": null,
        "FILE": "4696786",
        "GP_ID": "285225810",
        "TLE_LINE0": "0 GALILEO 8 (264)",
        "TLE_LINE1": "1 40545U 15017B   25098.80911173 -.00000106  00000-0  00000-0 0  9994",
        "TLE_LINE2": "2 40545  56.9050 353.4452 0002964 284.9354  75.0654  1.70475593 24843"
    }
]